{
    "links": {
        "self": "http://www.neowsapp.com/rest/v1/neo/3684634?api_key=iIulBulltgU6a56xZRHN4H3l9WmuAYTsLGpBGhQ2"
    },
    "id": "3684634",
    "neo_reference_id": "3684634",
    "name": "(2014 QV363)",
    "designation": "2014 QV363",
    "nasa_jpl_url": "http://ssd.jpl.nasa.gov/sbdb.cgi?sstr=3684634",
    "absolute_magnitude_h": 25.9,
    "estimated_diameter": {
        "kilometers": {
            "estimated_diameter_min": 0.0175612318,
            "estimated_diameter_max": 0.0392681082
        },
        "meters": {
            "estimated_diameter_min": 17.561231848,
            "estimated_diameter_max": 39.2681081809
        },
        "miles": {
            "estimated_diameter_min": 0.0109120402,
            "estimated_diameter_max": 0.0244000636
        },
        "feet": {
            "estimated_diameter_min": 57.6155918963,
            "estimated_diameter_max": 128.8323800441
        }
    },
    "is_potentially_hazardous_asteroid": false,
    "close_approach_data": [
        {
            "close_approach_date": "2014-08-21",
            "close_approach_date_full": "2014-Aug-21 00:13",
            "epoch_date_close_approach": 1408579980000,
            "relative_velocity": {
                "kilometers_per_second": "10.6662087192",
                "kilometers_per_hour": "38398.3513889854",
                "miles_per_hour": "23859.2422838948"
            },
            "miss_distance": {
                "astronomical": "0.0146665695",
                "lunar": "5.7052955355",
                "kilometers": "2194087.557406965",
                "miles": "1363342.789127517"
            },
            "orbiting_body": "Earth"
        }
    ],
    "orbital_data": {
        "orbit_id": "3",
        "orbit_determination_date": "2017-04-06 08:39:01",
        "first_observation_date": "2014-08-28",
        "last_observation_date": "2014-08-31",
        "data_arc_in_days": 3,
        "observations_used": 15,
        "orbit_uncertainty": "8",
        "minimum_orbit_intersection": ".00902488",
        "jupiter_tisserand_invariant": "4.452",
        "epoch_osculation": "2456898.5",
        "eccentricity": ".4103749258804575",
        "semi_major_axis": "1.4932784537109",
        "inclination": "7.932776079825605",
        "ascending_node_longitude": "332.1738669990497",
        "orbital_period": "666.5145354746654",
        "perihelion_distance": ".8804744189504051",
        "perihelion_argument": "299.5765775113292",
        "aphelion_distance": "2.106082488471394",
        "perihelion_time": "2456846.528293520362",
        "mean_anomaly": "28.0711272400763",
        "mean_motion": ".5401232543917773",
        "equinox": "J2000",
        "orbit_class": {
            "orbit_class_type": "APO",
            "orbit_class_description": "Near-Earth asteroid orbits which cross the Earth’s orbit similar to that of 1862 Apollo",
            "orbit_class_range": "a (semi-major axis) > 1.0 AU; q (perihelion) < 1.017 AU"
        }
    },
    "is_sentry_object": false
}